{"type": "FeatureCollection", "features": [ {"type": "Feature", "properties": {"norad_id": 44476, "name": "INTELSAT 39 (IS-39)", "group": "intelsat", "lat": -0.03265783395969771, "lon": -146.90732718756462, "alt_km": 35784.52723852451, "timestamp": "2025-12-09T04:51:47.176184+00:00", "meta": {"OBJECT_NAME": "INTELSAT 39 (IS-39)", "OBJECT_ID": "2019-049B", "EPOCH": "2025-12-08T10:28:25.232160", "MEAN_MOTION": 1.00270315, "ECCENTRICITY": 8.757e-05, "INCLINATION": 0.0178, "RA_OF_ASC_NODE": 326.9811, "ARG_OF_PERICENTER": 187.7371, "MEAN_ANOMALY": 141.7767, "EPHEMERIS_TYPE": 0, "CLASSIFICATION_TYPE": "U", "NORAD_CAT_ID": 44476, "ELEMENT_SET_NO": 999, "REV_AT_EPOCH": 2321, "BSTAR": 0, "MEAN_MOTION_DOT": 3.6e-07, "MEAN_MOTION_DDOT": 0}, "tle": {"line1": "1 44476U 19049B   25342.43640315  .00000036  00000+0  00000+0 0  9997", "line2": "2 44476   0.0178 326.9811 0000875 187.7371 141.7767  1.00270315 23217"}}, "geometry": {"type": "Point", "coordinates": [-146.90732718756462, -0.03265783395969771]}}, {"type": "Feature", "properties": {"norad_id": 46114, "name": "GALAXY 30 (G-30)", "group": "intelsat", "lat": 0.02385690159316352, "lon": 26.156957766989493, "alt_km": 35792.7750916014, "timestamp": "2025-12-09T04:51:47.176195+00:00", "meta": {"OBJECT_NAME": "GALAXY 30 (G-30)", "OBJECT_ID": "2020-056C", "EPOCH": "2025-12-08T16:25:58.490400", "MEAN_MOTION": 1.00271162, "ECCENTRICITY": 0.0002417, "INCLINATION": 0.018, "RA_OF_ASC_NODE": 351.851, "ARG_OF_PERICENTER": 264.4369, "MEAN_ANOMALY": 302.8891, "EPHEMERIS_TYPE": 0, "CLASSIFICATION_TYPE": "U", "NORAD_CAT_ID": 46114, "ELEMENT_SET_NO": 999, "REV_AT_EPOCH": 1938, "BSTAR": 0, "MEAN_MOTION_DOT": 3.9e-07, "MEAN_MOTION_DDOT": 0}, "tle": {"line1": "1 46114U 20056C   25342.68470475  .00000039  00000+0  00000+0 0  9996", "line2": "2 46114   0.0180 351.8510 0002417 264.4369 302.8891  1.00271162 19380"}}, "geometry": {"type": "Point", "coordinates": [26.156957766989493, 0.02385690159316352]}}, {"type": "Feature", "properties": {"norad_id": 54026, "name": "GALAXY 33 (G-33)", "group": "intelsat", "lat": 0.026922904104973066, "lon": 18.16245901563372, "alt_km": 35791.98922819648, "timestamp": "2025-12-09T04:51:47.176207+00:00", "meta": {"OBJECT_NAME": "GALAXY 33 (G-33)", "OBJECT_ID": "2022-128A", "EPOCH": "2025-12-08T14:41:01.039776", "MEAN_MOTION": 1.00271783, "ECCENTRICITY": 0.0002267, "INCLINATION": 0.0159, "RA_OF_ASC_NODE": 302.3575, "ARG_OF_PERICENTER": 307.2936, "MEAN_ANOMALY": 275.2198, "EPHEMERIS_TYPE": 0, "CLASSIFICATION_TYPE": "U", "NORAD_CAT_ID": 54026, "ELEMENT_SET_NO": 999, "REV_AT_EPOCH": 1183, "BSTAR": 0, "MEAN_MOTION_DOT": 8.1e-07, "MEAN_MOTION_DDOT": 0}, "tle": {"line1": "1 54026U 22128A   25342.61181759  .00000081  00000+0  00000+0 0  9993", "line2": "2 54026   0.0159 302.3575 0002267 307.2936 275.2198  1.00271783 11832"}}, "geometry": {"type": "Point", "coordinates": [18.16245901563372, 0.026922904104973066]}}, {"type": "Feature", "properties": {"norad_id": 54027, "name": "GALAXY 34 (G-34)", "group": "intelsat", "lat": 0.03783910951977508, "lon": 22.214256729970703, "alt_km": 35790.42168613883, "timestamp": "2025-12-09T04:51:47.176218+00:00", "meta": {"OBJECT_NAME": "GALAXY 34 (G-34)", "OBJECT_ID": "2022-128B", "EPOCH": "2025-12-08T12:04:59.032992", "MEAN_MOTION": 1.00270185, "ECCENTRICITY": 0.00012919, "INCLINATION": 0.0269, "RA_OF_ASC_NODE": 317.8338, "ARG_OF_PERICENTER": 287.9468, "MEAN_ANOMALY": 244.0411, "EPHEMERIS_TYPE": 0, "CLASSIFICATION_TYPE": "U", "NORAD_CAT_ID": 54027, "ELEMENT_SET_NO": 999, "REV_AT_EPOCH": 1200, "BSTAR": 0, "MEAN_MOTION_DOT": 0, "MEAN_MOTION_DDOT": 0}, "tle": {"line1": "1 54027U 22128B   25342.50346103  .00000000  00000+0  00000+0 0  9999", "line2": "2 54027   0.0269 317.8338 0001291 287.9468 244.0411  1.00270185 12000"}}, "geometry": {"type": "Point", "coordinates": [22.214256729970703, 0.03783910951977508]}}, {"type": "Feature", "properties": {"norad_id": 54243, "name": "GALAXY 31 (G-31)", "group": "intelsat", "lat": 0.022031475660120876, "lon": 30.16226676036315, "alt_km": 35790.29230175445, "timestamp": "2025-12-09T04:51:47.176230+00:00", "meta": {"OBJECT_NAME": "GALAXY 31 (G-31)", "OBJECT_ID": "2022-153A", "EPOCH": "2025-12-08T16:27:13.368960", "MEAN_MOTION": 1.0027162, "ECCENTRICITY": 0.0001927, "INCLINATION": 0.0212, "RA_OF_ASC_NODE": 257.6469, "ARG_OF_PERICENTER": 11.6526, "MEAN_ANOMALY": 294.1971, "EPHEMERIS_TYPE": 0, "CLASSIFICATION_TYPE": "U", "NORAD_CAT_ID": 54243, "ELEMENT_SET_NO": 999, "REV_AT_EPOCH": 522, "BSTAR": 0, "MEAN_MOTION_DOT": 1.5e-07, "MEAN_MOTION_DDOT": 0}, "tle": {"line1": "1 54243U 22153A   25342.68557140  .00000015  00000+0  00000+0 0  9997", "line2": "2 54243   0.0212 257.6469 0001927  11.6526 294.1971  1.00271620  5225"}}, "geometry": {"type": "Point", "coordinates": [30.16226676036315, 0.022031475660120876]}}, {"type": "Feature", "properties": {"norad_id": 54244, "name": "GALAXY 32 (G-32)", "group": "intelsat", "lat": 0.029586476263781126, "lon": 60.16618506918185, "alt_km": 35790.86465534742, "timestamp": "2025-12-09T04:51:47.176241+00:00", "meta": {"OBJECT_NAME": "GALAXY 32 (G-32)", "OBJECT_ID": "2022-153B", "EPOCH": "2025-12-08T12:27:22.096800", "MEAN_MOTION": 1.00270602, "ECCENTRICITY": 0.00027139, "INCLINATION": 0.0093, "RA_OF_ASC_NODE": 341.4541, "ARG_OF_PERICENTER": 326.1977, "MEAN_ANOMALY": 225.7141, "EPHEMERIS_TYPE": 0, "CLASSIFICATION_TYPE": "U", "NORAD_CAT_ID": 54244, "ELEMENT_SET_NO": 999, "REV_AT_EPOCH": 1123, "BSTAR": 0, "MEAN_MOTION_DOT": -1.72e-06, "MEAN_MOTION_DDOT": 0}, "tle": {"line1": "1 54244U 22153B   25342.51900575 -.00000172  00000+0  00000+0 0  9999", "line2": "2 54244   0.0093 341.4541 0002713 326.1977 225.7141  1.00270602 11230"}}, "geometry": {"type": "Point", "coordinates": [60.16618506918185, 0.029586476263781126]}}, {"type": "Feature", "properties": {"norad_id": 54741, "name": "GALAXY 35 (G-35)", "group": "intelsat", "lat": 0.01041459745448794, "lon": 58.065646892781075, "alt_km": 35796.49321081633, "timestamp": "2025-12-09T04:51:47.176252+00:00", "meta": {"OBJECT_NAME": "GALAXY 35 (G-35)", "OBJECT_ID": "2022-170A", "EPOCH": "2025-12-08T14:52:22.454112", "MEAN_MOTION": 1.0027105, "ECCENTRICITY": 0.0002674, "INCLINATION": 0.0196, "RA_OF_ASC_NODE": 75.317, "ARG_OF_PERICENTER": 188.7561, "MEAN_ANOMALY": 303.5567, "EPHEMERIS_TYPE": 0, "CLASSIFICATION_TYPE": "U", "NORAD_CAT_ID": 54741, "ELEMENT_SET_NO": 999, "REV_AT_EPOCH": 1098, "BSTAR": 0, "MEAN_MOTION_DOT": -1.6e-06, "MEAN_MOTION_DDOT": 0}, "tle": {"line1": "1 54741U 22170A   25342.61970433 -.00000160  00000+0  00000+0 0  9998", "line2": "2 54741   0.0196  75.3170 0002674 188.7561 303.5567  1.00271050 10980"}}, "geometry": {"type": "Point", "coordinates": [58.065646892781075, 0.01041459745448794]}}, {"type": "Feature", "properties": {"norad_id": 54742, "name": "GALAXY 36 (G-36)", "group": "intelsat", "lat": 0.023416359337326383, "lon": 62.141189573430964, "alt_km": 35788.31696688639, "timestamp": "2025-12-09T04:51:47.176264+00:00", "meta": {"OBJECT_NAME": "GALAXY 36 (G-36)", "OBJECT_ID": "2022-170B", "EPOCH": "2025-12-08T14:53:37.334400", "MEAN_MOTION": 1.00270824, "ECCENTRICITY": 5.91e-05, "INCLINATION": 0.0087, "RA_OF_ASC_NODE": 16.4813, "ARG_OF_PERICENTER": 265.1369, "MEAN_ANOMALY": 290.4097, "EPHEMERIS_TYPE": 0, "CLASSIFICATION_TYPE": "U", "NORAD_CAT_ID": 54742, "ELEMENT_SET_NO": 999, "REV_AT_EPOCH": 1086, "BSTAR": 0, "MEAN_MOTION_DOT": -1.83e-06, "MEAN_MOTION_DDOT": 0}, "tle": {"line1": "1 54742U 22170B   25342.62057100 -.00000183  00000+0  00000+0 0  9992", "line2": "2 54742   0.0087  16.4813 0000591 265.1369 290.4097  1.00270824 10869"}}, "geometry": {"type": "Point", "coordinates": [62.141189573430964, 0.023416359337326383]}}, {"type": "Feature", "properties": {"norad_id": 57493, "name": "GALAXY 37 (G-37)", "group": "intelsat", "lat": 0.023211694174252628, "lon": 24.16595356808863, "alt_km": 35791.379861239424, "timestamp": "2025-12-09T04:51:47.176275+00:00", "meta": {"OBJECT_NAME": "GALAXY 37 (G-37)", "OBJECT_ID": "2023-112A", "EPOCH": "2025-12-08T18:08:04.811136", "MEAN_MOTION": 1.0027135, "ECCENTRICITY": 0.0002358, "INCLINATION": 0.0108, "RA_OF_ASC_NODE": 332.89, "ARG_OF_PERICENTER": 289.8352, "MEAN_ANOMALY": 320.0548, "EPHEMERIS_TYPE": 0, "CLASSIFICATION_TYPE": "U", "NORAD_CAT_ID": 57493, "ELEMENT_SET_NO": 999, "REV_AT_EPOCH": 863, "BSTAR": 0, "MEAN_MOTION_DOT": 5e-07, "MEAN_MOTION_DDOT": 0}, "tle": {"line1": "1 57493U 23112A   25342.75561124  .00000050  00000+0  00000+0 0  9997", "line2": "2 57493   0.0108 332.8900 0002358 289.8352 320.0548  1.00271350  8637"}}, "geometry": {"type": "Point", "coordinates": [24.16595356808863, 0.023211694174252628]}}]}